NORAD_CAT_ID,OBJECT_NAME,OBJECT_TYPE,EPOCH,MEAN_MOTION,ECCENTRICITY,INCLINATION,RA_OF_ASC_NODE,ARG_OF_PERICENTER,MEAN_ANOMALY,BSTAR,MEAN_MOTION_DOT,MEAN_MOTION_DDOT,TLE_LINE0,TLE_LINE1,TLE_LINE2,SEMIMAJOR_AXIS,PERIOD,APOGEE,PERIGEE,DECAYED
51852.0,STARLINK-3542,PAYLOAD,2023-01-10 19:38:08,15.08844609,0.0002888,53.2146,159.0509,62.1816,297.9469,0.00012431,1.691e-05,0.0,0 STARLINK-3542,1 51852U 22022A   23010.81815842  .00001691  00000-0  12431-3 0  9993,2 51852  53.2146 159.0509 0002888  62.1816 297.9469 15.08844609 48815,6917.866,95.437,541.729,537.7330000000002,0.0
51852.0,STARLINK-3542,PAYLOAD,2023-01-11 13:07:23,15.08841384,0.0002701,53.2165,155.7814,57.5131,302.6122,7.9373e-05,9.75e-06,0.0,0 STARLINK-3542,1 51852U 22022A   23011.54679987  .00000975  00000-0  79373-4 0  9995,2 51852  53.2165 155.7814 0002701  57.5131 302.6122 15.08841384 48929,6917.876,95.437,541.61,537.873,0.0
51852.0,STARLINK-3542,PAYLOAD,2023-01-11 19:28:55,15.088502300000002,0.0002791,53.2154,154.5911,62.3322,297.7953,0.00020456,2.97e-05,0.0,0 STARLINK-3542,1 51852U 22022A   23011.81175469  .00002970  00000-0  20456-3 0  9995,2 51852  53.2154 154.5911 0002791  62.3322 297.7953 15.08850230 47719,6917.849,95.437,541.645,537.783,0.0
51852.0,STARLINK-3542,PAYLOAD,2023-01-12 19:19:42,15.08841276,0.0002764,53.216,150.1296,64.2494,295.8783,1.8055e-05,-1e-08,0.0,0 STARLINK-3542,1 51852U 22022A   23012.80535815 -.00000001  00000-0  18055-4 0  9997,2 51852  53.2160 150.1296 0002764  64.2494 295.8783 15.08841276 49111,6917.876,95.437,541.654,537.8290000000002,0.0
51852.0,STARLINK-3542,PAYLOAD,2023-01-13 12:48:57,15.08837791,0.0002638,53.2162,146.8595,69.2189,290.9086,6.5299e-05,7.51e-06,0.0,0 STARLINK-3542,1 51852U 22022A   23013.53400182  .00000751  00000-0  65299-4 0  9999,2 51852  53.2162 146.8595 0002638  69.2189 290.9086 15.08837791 47974,6917.887,95.438,541.577,537.927,0.0
51852.0,STARLINK-3542,PAYLOAD,2023-01-13 15:59:43,15.08845527,0.000254,53.2165,146.2659,66.6099,293.516,0.00013189,1.812e-05,0.0,0 STARLINK-3542,1 51852U 22022A   23013.66647650  .00001812  00000-0  13189-3 0  9995,2 51852  53.2165 146.2659 0002540  66.6099 293.5160 15.08845527 47995,6917.863,95.437,541.486,537.971,0.0
51852.0,STARLINK-3542,PAYLOAD,2023-01-14 07:53:35,15.08834516,0.0002474,53.2153,143.2922,74.8984,285.2282,0.00011882,1.603e-05,0.0,0 STARLINK-3542,1 51852U 22022A   23014.32888495  .00001603  00000-0  11882-3 0  9999,2 51852  53.2153 143.2922 0002474  74.8984 285.2282 15.08834516 49342,6917.897,95.438,541.474,538.0509999999999,0.0
51852.0,STARLINK-3542,PAYLOAD,2023-01-15 01:22:49,15.08843771,0.0002266,53.2147,140.0226,73.1697,286.9544,-2.4733e-05,-6.82e-06,0.0,0 STARLINK-3542,1 51852U 22022A   23015.05751854 -.00000682  00000-0 -24733-4 0  9996,2 51852  53.2147 140.0226 0002266  73.1697 286.9544 15.08843771 49453,6917.869000000001,95.437,541.3009999999999,538.1659999999999,0.0
51852.0,STARLINK-3542,PAYLOAD,2023-01-15 14:05:55,15.08840235,0.0002241,53.2149,137.6415,76.5767,283.5475,0.0001085,1.439e-05,0.0,0 STARLINK-3542,1 51852U 22022A   23015.58744260  .00001439  00000-0  10850-3 0  9990,2 51852  53.2149 137.6415 0002241  76.5767 283.5475 15.08840235 48283,6917.88,95.438,541.295,538.194,0.0
51852.0,STARLINK-3542,PAYLOAD,2023-01-15 15:41:17,15.08846953,0.0002193,53.2161,137.3461,68.7573,291.3654,0.00017918,2.565e-05,0.0,0 STARLINK-3542,1 51852U 22022A   23015.65367998  .00002565  00000-0  17918-3 0  9990,2 51852  53.2161 137.3461 0002193  68.7573 291.3654 15.08846953 48299,6917.859,95.437,541.241,538.207,0.0
51852.0,STARLINK-3542,PAYLOAD,2023-01-16 01:13:37,15.08841885,0.0002519,53.2164,135.5613,79.22399999999999,280.9036,0.00016214,2.293e-05,0.0,0 STARLINK-3542,1 51852U 22022A   23016.05112395  .00002293  00000-0  16214-3 0  9990,2 51852  53.2164 135.5613 0002519  79.2240 280.9036 15.08841885 49604,6917.875,95.437,541.482,537.997,0.0
51852.0,STARLINK-3542,PAYLOAD,2023-01-16 13:56:40,15.08874919,0.0002302,53.2162,133.1838,83.4477,276.6777,0.00063823,9.894e-05,0.0,0 STARLINK-3542,1 51852U 22022A   23016.58102703  .00009894  00000-0  63823-3 0  9992,2 51852  53.2162 133.1838 0002302  83.4477 276.6777 15.08874919 48432,6917.774,95.435,541.231,538.0459999999999,0.0
51852.0,STARLINK-3542,PAYLOAD,2023-01-16 17:07:28,15.08844774,0.0002237,53.2161,132.589,79.2629,280.8615,0.00016924,2.407e-05,0.0,0 STARLINK-3542,1 51852U 22022A   23016.71352037  .00002407  00000-0  16924-3 0  9997,2 51852  53.2161 132.5890 0002237  79.2629 280.8615 15.08844774 48457,6917.866,95.437,541.278,538.183,0.0
51852.0,STARLINK-3542,PAYLOAD,2023-01-17 01:04:24,15.088289,0.000168,53.2169,131.1014,86.7838,273.3347,5.402e-05,5.72e-06,0.0,0 STARLINK-3542,1 51852U 22022A   23017.04472756  .00000572  00000-0  54020-4 0  9996,2 51852  53.2169 131.1014 0001680  86.7838 273.3347 15.08828900 49750,6917.914000000001,95.438,540.942,538.617,0.0
51852.0,STARLINK-3542,PAYLOAD,2023-01-17 13:47:30,15.08825147,0.0001785,53.2165,128.7229,87.1168,273.0028,1.3248e-05,-7.7e-07,0.0,0 STARLINK-3542,1 51852U 22022A   23017.57465632 -.00000077  00000-0  13248-4 0  9997,2 51852  53.2165 128.7229 0001785  87.1168 273.0028 15.08825147 48586,6917.926,95.438,541.026,538.556,0.0
51852.0,STARLINK-3542,PAYLOAD,2023-01-17 16:58:16,15.08830844,0.0002106999999999,53.2162,128.1268,91.7028,268.4205,-3.0077e-05,-7.67e-06,0.0,0 STARLINK-3542,1 51852U 22022A   23017.70713518 -.00000767  00000-0 -30077-4 0  9997,2 51852  53.2162 128.1268 0002107  91.7028 268.4205 15.08830844 48603,6917.908,95.438,541.231,538.316,0.0
51852.0,STARLINK-3542,PAYLOAD,2023-01-18 07:16:44,15.08835721,0.0001581,53.2166,125.4506,95.1319,264.9853,0.00016247,2.298e-05,0.0,0 STARLINK-3542,1 51852U 22022A   23018.30329378  .00002298  00000-0  16247-3 0  9992,2 51852  53.2166 125.4506 0001581  95.1319 264.9853 15.08835721 49945,6917.893,95.438,540.852,538.665,0.0
51852.0,STARLINK-3542,PAYLOAD,2023-01-18 13:38:16,15.08860083,0.0001703,53.2163,124.2607,104.6932,255.4249,0.00046875,7.184e-05,0.0,0 STARLINK-3542,1 51852U 22022A   23018.56824192  .00007184  00000-0  46875-3 0  9993,2 51852  53.2163 124.2607 0001703 104.6932 255.4249 15.08860083 49981,6917.819,95.436,540.862,538.506,0.0
51852.0,STARLINK-3542,PAYLOAD,2023-01-19 07:07:30,15.08848752,0.0002161,53.2162,120.9906,96.7088,263.415,0.00037105,5.623e-05,0.0,0 STARLINK-3542,1 51852U 22022A   23019.29688559  .00005623  00000-0  37105-3 0  9991,2 51852  53.2162 120.9906 0002161  96.7088 263.4150 15.08848752 50090,6917.854,95.437,541.214,538.224,0.0
51852.0,STARLINK-3542,PAYLOAD,2023-01-19 10:18:17,15.08850586,0.0002147,53.2164,120.3956,96.9056,263.218,0.00037276,5.651e-05,0.0,0 STARLINK-3542,1 51852U 22022A   23019.42936451  .00005651  00000-0  37276-3 0  9993,2 51852  53.2164 120.3956 0002147  96.9056 263.2180 15.08850586 48863,6917.848000000001,95.437,541.198,538.2280000000001,0.0
51852.0,STARLINK-3542,PAYLOAD,2023-01-19 16:39:48,15.0886667,0.0001781,53.2162,119.2045,89.8239,270.2958,0.00050727,7.8e-05,0.0,0 STARLINK-3542,1 51852U 22022A   23019.69431519  .00007800  00000-0  50727-3 0  9991,2 51852  53.2162 119.2045 0001781  89.8239 270.2958 15.08866670 50151,6917.799,95.436,540.896,538.432,0.0
51852.0,STARLINK-3542,PAYLOAD,2023-01-19 23:01:21,15.08842703,0.0001738,53.217,118.0165,96.8507,263.2683,-8.0758e-05,-1.573e-05,0.0,0 STARLINK-3542,1 51852U 22022A   23019.95928234 -.00001573  00000-0 -80758-4 0  9996,2 51852  53.2170 118.0165 0001738  96.8507 263.2683 15.08842703 50190,6917.871999999999,95.437,540.939,538.535,0.0
51852.0,STARLINK-3542,PAYLOAD,2023-01-20 11:44:27,15.0884065,0.0001794,53.216,115.6386,94.5144,265.6053,-0.0001594,-2.824e-05,0.0,0 STARLINK-3542,1 51852U 22022A   23020.48920373 -.00002824  00000-0 -15940-3 0  9992,2 51852  53.2160 115.6386 0001794  94.5144 265.6053 15.08840650 49027,6917.878000000001,95.438,540.984,538.502,0.0
51852.0,STARLINK-3542,PAYLOAD,2023-01-21 06:49:05,15.08837703,0.0001819,53.2162,112.0698,98.9476,261.1722,0.00026269,3.895e-05,0.0,0 STARLINK-3542,1 51852U 22022A   23021.28408663  .00003895  00000-0  26269-3 0  9997,2 51852  53.2162 112.0698 0001819  98.9476 261.1722 15.08837703 50391,6917.887,95.438,541.011,538.494,0.0
51852.0,STARLINK-3542,PAYLOAD,2023-01-21 13:10:37,15.08853683,0.000172,53.2182,110.8822,99.8002,260.3184,0.00069842,0.00010849,0.0,0 STARLINK-3542,1 51852U 22022A   23021.54904282  .00010849  00000-0  69842-3 0  9995,2 51852  53.2182 110.8822 0001720  99.8002 260.3184 15.08853683 50437,6917.839,95.437,540.893,538.514,0.0
51852.0,STARLINK-3542,PAYLOAD,2023-01-22 01:53:42,15.08847203,0.0001485,53.2172,108.5024,100.5382,259.5777,0.00038053,5.775e-05,0.0,0 STARLINK-3542,1 51852U 22022A   23022.07896369  .00005775  00000-0  38053-3 0  9992,2 51852  53.2172 108.5024 0001485 100.5382 259.5777 15.08847203 50511,6917.858,95.437,540.751,538.696,0.0
51852.0,STARLINK-3542,PAYLOAD,2023-01-22 11:26:01,15.08831506,0.0001386999999999,53.2161,106.7182,79.2183,280.8965,0.00059298,9.16e-05,0.0,0 STARLINK-3542,1 51852U 22022A   23022.47640759  .00009160  00000-0  59298-3 0  9992,2 51852  53.2161 106.7182 0001387  79.2183 280.8965 15.08831506 50577,6917.906,95.438,540.731,538.812,0.0
51852.0,STARLINK-3542,PAYLOAD,2023-01-23 23:59:53,15.08843042,0.0001274999999999,53.2152,99.878,92.1703,267.9435,0.00023856,3.511e-05,0.0,0 STARLINK-3542,1 51852U 22022A   23023.99992846  .00003511  00000-0  23856-3 0  9992,2 51852  53.2152  99.8780 0001275  92.1703 267.9435 15.08843042 50803,6917.871,95.437,540.618,538.854,0.0
51852.0,STARLINK-3542,PAYLOAD,2023-01-24 11:07:36,15.08826937,0.0001268,53.2152,97.795,81.8612,278.2524,2.1329e-05,5.2e-07,0.0,0 STARLINK-3542,1 51852U 22022A   23024.46361858  .00000052  00000-0  21329-4 0  9999,2 51852  53.2152  97.7950 0001268  81.8612 278.2524 15.08826937 50870,6917.92,95.438,540.663,538.908,0.0
